{
  "norad_id": 56715,
  "name": "ONEWEB-0679",
  "history": [
    {
      "epoch": "2026-03-28T21:57:26.666208Z",
      "apogee_km": 1198.5940598902462,
      "perigee_km": 1196.913727290048,
      "latitude_deg": -3.4621986224599863e-06,
      "longitude_deg": 89.03069606752878,
      "height_km": 1200.7958424405538,
      "semi_major_axis_km": 7575.890893590147,
      "eccentricity": 0.0001109,
      "inclination_deg": 87.9041,
      "raan_deg": 244.7203,
      "arg_perigee_deg": 100.0623,
      "mean_anomaly_deg": 260.0633,
      "mean_motion_rev_day": 13.1659498
    }
  ]
}